{
  "type": "FeatureCollection",
  "features": [
    {
      "type": "Feature",
      "properties": {
        "norad_id": 39160,
        "name": "VNREDSAT 1",
        "group": "resource",
        "lat": -39.211858325947844,
        "lon": 48.231562751173854,
        "alt_km": 684.2374681480705,
        "timestamp": "2025-12-12T09:49:08.384915+00:00",
        "meta_object_name": "VNREDSAT 1",
        "meta_object_id": "2013-021B",
        "meta_epoch": "2025-12-12T03:26:33.152064",
        "meta_mean_motion": 14.64922374,
        "meta_eccentricity": 0.000129,
        "meta_inclination": 97.9372,
        "meta_ra_of_asc_node": 41.4388,
        "meta_arg_of_pericenter": 79.4443,
        "meta_mean_anomaly": 280.6905,
        "meta_ephemeris_type": 0,
        "meta_classification_type": "U",
        "meta_norad_cat_id": 39160,
        "meta_element_set_no": 999,
        "meta_rev_at_epoch": 67290,
        "meta_bstar": 0.00026836,
        "meta_mean_motion_dot": 1.39e-05,
        "meta_mean_motion_ddot": 0,
        "tle_line1": "1 39160U 13021B   25346.14343926  .00001390  00000+0  26836-3 0  9998",
        "tle_line2": "2 39160  97.9372  41.4388 0001290  79.4443 280.6905 14.64922374672905"
      },
      "geometry": {
        "type": "Point",
        "coordinates": [
          48.231562751173854,
          -39.211858325947844
        ]
      }
    },
    {
      "type": "Feature",
      "properties": {
        "norad_id": 39227,
        "name": "ARIRANG-5 (KOMPSAT-5)",
        "group": "resource",
        "lat": -8.2976131594024,
        "lon": 171.83570977122974,
        "alt_km": 556.0097055050801,
        "timestamp": "2025-12-12T09:49:08.384925+00:00",
        "meta_object_name": "ARIRANG-5 (KOMPSAT-5)",
        "meta_object_id": "2013-042A",
        "meta_epoch": "2025-12-12T03:28:16.476096",
        "meta_mean_motion": 15.04499617,
        "meta_eccentricity": 0.0003675,
        "meta_inclination": 97.6144,
        "meta_ra_of_asc_node": 170.4572,
        "meta_arg_of_pericenter": 56.9902,
        "meta_mean_anomaly": 303.1676,
        "meta_ephemeris_type": 0,
        "meta_classification_type": "U",
        "meta_norad_cat_id": 39227,
        "meta_element_set_no": 999,
        "meta_rev_at_epoch": 67573,
        "meta_bstar": 0.00023195,
        "meta_mean_motion_dot": 3.187e-05,
        "meta_mean_motion_ddot": 0,
        "tle_line1": "1 39227U 13042A   25346.14463514  .00003187  00000+0  23195-3 0  9992",
        "tle_line2": "2 39227  97.6144 170.4572 0003675  56.9902 303.1676 15.04499617675734"
      },
      "geometry": {
        "type": "Point",
        "coordinates": [
          171.83570977122974,
          -8.2976131594024
        ]
      }
    },
    {
      "type": "Feature",
      "properties": {
        "norad_id": 39418,
        "name": "SKYSAT-A",
        "group": "resource",
        "lat": -3.4514728967548636,
        "lon": 37.077347382649414,
        "alt_km": 541.7048889560683,
        "timestamp": "2025-12-12T09:49:08.384935+00:00",
        "meta_object_name": "SKYSAT-A",
        "meta_object_id": "2013-066C",
        "meta_epoch": "2025-12-12T01:53:26.617920",
        "meta_mean_motion": 15.11597533,
        "meta_eccentricity": 0.0020648,
        "meta_inclination": 97.4112,
        "meta_ra_of_asc_node": 36.3072,
        "meta_arg_of_pericenter": 238.8896,
        "meta_mean_anomaly": 121.0309,
        "meta_ephemeris_type": 0,
        "meta_classification_type": "U",
        "meta_norad_cat_id": 39418,
        "meta_element_set_no": 999,
        "meta_rev_at_epoch": 66020,
        "meta_bstar": 0.00035227,
        "meta_mean_motion_dot": 5.948e-05,
        "meta_mean_motion_ddot": 0,
        "tle_line1": "1 39418U 13066C   25346.07878030  .00005948  00000+0  35227-3 0  9991",
        "tle_line2": "2 39418  97.4112  36.3072 0020648 238.8896 121.0309 15.11597533660206"
      },
      "geometry": {
        "type": "Point",
        "coordinates": [
          37.077347382649414,
          -3.4514728967548636
        ]
      }
    },
    {
      "type": "Feature",
      "properties": {
        "norad_id": 39419,
        "name": "DUBAISAT-2",
        "group": "resource",
        "lat": 37.17745574431381,
        "lon": 162.51914759827753,
        "alt_km": 546.0393024708947,
        "timestamp": "2025-12-12T09:49:08.384945+00:00",
        "meta_object_name": "DUBAISAT-2",
        "meta_object_id": "2013-066D",
        "meta_epoch": "2025-12-12T06:00:19.172160",
        "meta_mean_motion": 15.08355508,
        "meta_eccentricity": 0.0010737,
        "meta_inclination": 97.4459,
        "meta_ra_of_asc_node": 336.6727,
        "meta_arg_of_pericenter": 323.0748,
        "meta_mean_anomaly": 36.9741,
        "meta_ephemeris_type": 0,
        "meta_classification_type": "U",
        "meta_norad_cat_id": 39419,
        "meta_element_set_no": 999,
        "meta_rev_at_epoch": 65819,
        "meta_bstar": 0.00060709,
        "meta_mean_motion_dot": 9.387e-05,
        "meta_mean_motion_ddot": 0,
        "tle_line1": "1 39419U 13066D   25346.25022190  .00009387  00000+0  60709-3 0  9994",
        "tle_line2": "2 39419  97.4459 336.6727 0010737 323.0748  36.9741 15.08355508658194"
      },
      "geometry": {
        "type": "Point",
        "coordinates": [
          162.51914759827753,
          37.17745574431381
        ]
      }
    },
    {
      "type": "Feature",
      "properties": {
        "norad_id": 39574,
        "name": "GPM-CORE",
        "group": "resource",
        "lat": -47.308012060421746,
        "lon": 64.21479774459821,
        "alt_km": 432.2184999956253,
        "timestamp": "2025-12-12T09:49:08.384957+00:00",
        "meta_object_name": "GPM-CORE",
        "meta_object_id": "2014-009C",
        "meta_epoch": "2025-12-12T04:08:45.508416",
        "meta_mean_motion": 15.44450966,
        "meta_eccentricity": 0.0009842,
        "meta_inclination": 64.9735,
        "meta_ra_of_asc_node": 214.5785,
        "meta_arg_of_pericenter": 245.0797,
        "meta_mean_anomaly": 114.9321,
        "meta_ephemeris_type": 0,
        "meta_classification_type": "U",
        "meta_norad_cat_id": 39574,
        "meta_element_set_no": 999,
        "meta_rev_at_epoch": 66892,
        "meta_bstar": 0.00025125,
        "meta_mean_motion_dot": 0.00011477,
        "meta_mean_motion_ddot": 0,
        "tle_line1": "1 39574U 14009C   25346.17274894  .00011477  00000+0  25125-3 0  9991",
        "tle_line2": "2 39574  64.9735 214.5785 0009842 245.0797 114.9321 15.44450966668929"
      },
      "geometry": {
        "type": "Point",
        "coordinates": [
          64.21479774459821,
          -47.308012060421746
        ]
      }
    },
    {
      "type": "Feature",
      "properties": {
        "norad_id": 39634,
        "name": "SENTINEL-1A",
        "group": "resource",
        "lat": -8.275352753724041,
        "lon": 170.45623773053066,
        "alt_km": 699.9823384305246,
        "timestamp": "2025-12-12T09:49:08.384967+00:00",
        "meta_object_name": "SENTINEL-1A",
        "meta_object_id": "2014-016A",
        "meta_epoch": "2025-12-12T04:01:19.216128",
        "meta_mean_motion": 14.59200145,
        "meta_eccentricity": 0.0001228,
        "meta_inclination": 98.1805,
        "meta_ra_of_asc_node": 351.4171,
        "meta_arg_of_pericenter": 83.7781,
        "meta_mean_anomaly": 276.3559,
        "meta_ephemeris_type": 0,
        "meta_classification_type": "U",
        "meta_norad_cat_id": 39634,
        "meta_element_set_no": 999,
        "meta_rev_at_epoch": 62274,
        "meta_bstar": 7.6023e-05,
        "meta_mean_motion_dot": 3.13e-06,
        "meta_mean_motion_ddot": 0,
        "tle_line1": "1 39634U 14016A   25346.16758352  .00000313  00000+0  76023-4 0  9992",
        "tle_line2": "2 39634  98.1805 351.4171 0001228  83.7781 276.3559 14.59200145622746"
      },
      "geometry": {
        "type": "Point",
        "coordinates": [
          170.45623773053066,
          -8.275352753724041
        ]
      }
    },
    {
      "type": "Feature",
      "properties": {
        "norad_id": 39731,
        "name": "KAZEOSAT 1",
        "group": "resource",
        "lat": -3.2076133382209364,
        "lon": -122.1478805843256,
        "alt_km": 755.0346035460288,
        "timestamp": "2025-12-12T09:49:08.384977+00:00",
        "meta_object_name": "KAZEOSAT 1",
        "meta_object_id": "2014-024A",
        "meta_epoch": "2025-12-12T03:58:36.632928",
        "meta_mean_motion": 14.42062644,
        "meta_eccentricity": 0.0001106,
        "meta_inclination": 98.343,
        "meta_ra_of_asc_node": 58.0854,
        "meta_arg_of_pericenter": 95.3956,
        "meta_mean_anomaly": 264.736,
        "meta_ephemeris_type": 0,
        "meta_classification_type": "U",
        "meta_norad_cat_id": 39731,
        "meta_element_set_no": 999,
        "meta_rev_at_epoch": 61160,
        "meta_bstar": 0.00017378,
        "meta_mean_motion_dot": 5.28e-06,
        "meta_mean_motion_ddot": 0,
        "tle_line1": "1 39731U 14024A   25346.16570177  .00000528  00000+0  17378-3 0  9991",
        "tle_line2": "2 39731  98.3430  58.0854 0001106  95.3956 264.7360 14.42062644611602"
      },
      "geometry": {
        "type": "Point",
        "coordinates": [
          -122.1478805843256,
          -3.2076133382209364
        ]
      }
    }
  ]
}